GOES 1 [-]              
<<<<<<< .mine
1 08366U 75100A   09143.53233969 -.00000228  00000-0  10000-3 0  8618
2 08366  14.3714 348.0267 0002865 294.9549  64.9772  1.00298037122705
=======
1 08366U 75100A   09120.60198092 -.00000231  00000-0  10000-3 0  8555
2 08366  14.3769 348.2099 0003496 289.3958  70.5260  1.00303137122470
>>>>>>> .r148
GOES 2 [-]              
<<<<<<< .mine
1 10061U 77048A   09138.35377717 -.00000197  00000-0  10000-3 0  8525
2 10061  14.6461 356.5217 0016910 253.9619 105.8243  0.99401477 61509
=======
1 10061U 77048A   09121.25149607  .00000067  00000-0  10000-3 0  8267
2 10061  14.6436 356.6571 0017036 255.9503 103.8195  0.99395560 61339
>>>>>>> .r148
GOES 3 [P]              
<<<<<<< .mine
1 10953U 78062A   09143.61652033 -.00000122  00000-0  10000-3 0  5079
2 10953  14.3528   0.2926 0003612   1.6949 358.2686  1.00267093 66427
=======
1 10953U 78062A   09121.67583755 -.00000140  00000-0  10000-3 0  4827
2 10953  14.3451   0.4688 0004003 341.4625  18.4829  1.00267696 66209
>>>>>>> .r148
GOES 4 [-]              
<<<<<<< .mine
1 11964U 80074A   09143.60669331 -.00000033  00000-0  10000-3 0  1185
2 11964  14.7008   3.9894 0036635 295.1092  64.4855  0.99227648 65782
=======
1 11964U 80074A   09121.43683469 -.00000247  00000-0  10000-3 0  1110
2 11964  14.6896   4.1709 0036660 295.2651  64.3058  0.99233186 65568
>>>>>>> .r148
GOES 5 [-]              
<<<<<<< .mine
1 12472U 81049A   09143.56760429 -.00000273  00000-0  10000-3 0  1533
2 12472  13.6604  14.4989 0001064 213.1894 146.7587  1.00242627 60460
=======
1 12472U 81049A   09120.62490242 -.00000292  00000-0  10000-3 0  1461
2 12472  13.6380  14.6869 0001536 238.8715 121.0654  1.00250610 60237
>>>>>>> .r148
GOES 6 [-]              
<<<<<<< .mine
1 14050U 83041A   09143.59423641 -.00000260  00000-0  10000-3 0  1554
2 14050  13.3114  19.5951 0002653 342.7433  17.1982  1.00285412153568
=======
1 14050U 83041A   09120.66126386 -.00000268  00000-0  10000-3 0  1506
2 14050  13.2841  19.7877 0002627 321.1825  38.7512  1.00292487153333
>>>>>>> .r148
GOES 7 [-]              
<<<<<<< .mine
1 17561U 87022A   09144.66559138  .00000055  00000-0  10000-3 0  9624
2 17561  12.0642  37.4552 0002580 194.6737  72.4003  1.00272928 64675
=======
1 17561U 87022A   09122.39161495  .00000043  00000-0  10000-3 0  9295
2 17561  12.0227  37.6807 0003161 213.5535 292.9372  1.00265260 64457
>>>>>>> .r148
GOES 8 [-]              
<<<<<<< .mine
1 23051U 94022A   09144.28508828  .00000007  00000-0  10000-3 0  7985
2 23051   5.6912  73.9690 0005972 182.1675 177.5897  0.98903192 62488
=======
1 23051U 94022A   09121.03264153 -.00000044  00000-0  10000-3 0  7693
2 23051   5.6322  74.2905 0006082 188.4831 171.4326  0.98906208 62258
>>>>>>> .r148
GOES 9 [P]              
<<<<<<< .mine
1 23581U 95025A   09140.48740122 -.00000086  00000-0  10000-3 0   789
2 23581   5.2419  70.9523 0005891 301.6975  58.0700  0.98801781 51156
=======
1 23581U 95025A   09121.25778288 -.00000177  00000-0  10000-3 0   496
2 23581   5.1915  71.1921 0004910 279.5614  80.3019  0.98800692 50964
>>>>>>> .r148
GOES 10 [+]             
<<<<<<< .mine
1 24786U 97019A   09144.89900022 -.00000277  00000-0  10000-3 0  9262
2 24786   3.5757  74.8698 0003304   7.8270  63.8534  1.00269888 44270
=======
1 24786U 97019A   09121.42182817 -.00000294  00000-0  10000-3 0  8910
2 24786   3.5157  75.1499 0003051 331.9338 264.3602  1.00278619 44032
>>>>>>> .r148
GOES 11 [+]             
<<<<<<< .mine
1 26352U 00022A   09144.13532407  .00000100  00000-0  10000-3 0  3297
2 26352   0.3818  84.6107 0001159 294.4574 136.4299  1.00267880 33166
=======
1 26352U 00022A   09122.28164757  .00000073  00000-0  10000-3 0  2971
2 26352   0.3272  84.8515 0001718 308.7286 153.3886  1.00284488 32943
>>>>>>> .r148
GOES 12 [+]             
<<<<<<< .mine
1 26871U 01031A   09140.37995750 -.00000230  00000-0  10000-3 0   696
2 26871   0.0513 252.8241 0004912 189.4326 216.9679  1.00258557 28720
=======
1 26871U 01031A   09122.10202047 -.00000261  00000-0  10000-3 0   398
2 26871   0.0958 256.4750 0003973 174.1583 111.2263  1.00263272 28546
>>>>>>> .r148
GOES 13 [S]             
<<<<<<< .mine
1 29155U 06018A   09144.29860623 -.00000074  00000-0  10000-3 0  6343
2 29155   0.2083 246.3474 0001289 290.4562  67.2499  1.00268259 11018
=======
1 29155U 06018A   09121.43673492 -.00000099  00000-0  00000+0 0  6173
2 29155   0.2621 249.7465 0001139 335.8441  45.9667  1.00267214 10780
>>>>>>> .r148
